NORAD_CAT_ID,OBJECT_NAME,OBJECT_TYPE,EPOCH,MEAN_MOTION,ECCENTRICITY,INCLINATION,RA_OF_ASC_NODE,ARG_OF_PERICENTER,MEAN_ANOMALY,BSTAR,MEAN_MOTION_DOT,MEAN_MOTION_DDOT,TLE_LINE0,TLE_LINE1,TLE_LINE2,SEMIMAJOR_AXIS,PERIOD,APOGEE,PERIGEE,DECAYED
55309.0,STARLINK-5315,PAYLOAD,2024-01-17 19:52:56,14.98333134,0.0002531,70.0005,175.9428,267.373,92.7139,2.6128e-05,2.19e-06,0.0,0 STARLINK-5315,1 55309U 23010AS  24017.82842894  .00000219  00000-0  26128-4 0  9992,2 55309  70.0005 175.9428 0002531 267.3730  92.7139 14.98333134 56653,6950.183,96.107,573.807,570.289,0.0
55309.0,STARLINK-5315,PAYLOAD,2024-01-18 11:54:17,14.98320574,0.0002457,70.0008,174.2603,260.3522,99.736,3.7377e-05,3.53e-06,0.0,0 STARLINK-5315,1 55309U 23010AS  24018.49603715  .00000353  00000-0  37377-4 0  9990,2 55309  70.0008 174.2603 0002457 260.3522  99.7360 14.98320574 56435,6950.222,96.108,573.795,570.379,0.0
55309.0,STARLINK-5315,PAYLOAD,2024-01-18 13:30:25,14.98320708,0.000246,70.0008,174.092,260.4864,99.6017,3.7633e-05,3.56e-06,0.0,0 STARLINK-5315,1 55309U 23010AS  24018.56279741  .00000356  00000-0  37633-4 0  9994,2 55309  70.0008 174.0920 0002460 260.4864  99.6017 14.98320708 56762,6950.222,96.108,573.796,570.377,0.0
55309.0,STARLINK-5315,PAYLOAD,2024-01-18 19:54:58,14.98319491,0.0002519,70.0009,173.4188,262.9324,97.1548,1.5489e-05,9.2e-07,0.0,0 STARLINK-5315,1 55309U 23010AS  24018.82984046  .00000092  00000-0  15489-4 0  9996,2 55309  70.0009 173.4188 0002519 262.9324  97.1548 14.98319491 56809,6950.225,96.108,573.841,570.34,0.0
55309.0,STARLINK-5315,PAYLOAD,2024-01-19 11:56:18,14.98331092,0.0002689,70.0005,171.7343,267.7028,92.3823,-3.1553e-05,-4.69e-06,0.0,0 STARLINK-5315,1 55309U 23010AS  24019.49743576 -.00000469  00000-0 -31553-4 0  9991,2 55309  70.0005 171.7343 0002689 267.7028  92.3823 14.98331092 56580,6950.19,96.107,573.923,570.186,0.0
55309.0,STARLINK-5315,PAYLOAD,2024-01-19 13:32:26,14.98330963,0.0002694,70.0005,171.566,267.6748,92.4102,-3.2359e-05,-4.79e-06,0.0,0 STARLINK-5315,1 55309U 23010AS  24019.56419579 -.00000479  00000-0 -32359-4 0  9998,2 55309  70.0005 171.5660 0002694 267.6748  92.4102 14.98330963 56918,6950.19,96.107,573.927,570.183,0.0
55309.0,STARLINK-5315,PAYLOAD,2024-01-19 19:56:58,14.98333092,0.0002677,70.0007,170.8932,267.234,92.8513,-4.2578e-06,-1.44e-06,0.0,0 STARLINK-5315,1 55309U 23010AS  24019.83123347 -.00000144  00000-0 -42578-5 0  9997,2 55309  70.0007 170.8932 0002677 267.2340  92.8513 14.98333092 56959,6950.183,96.107,573.909,570.188,0.0
55309.0,STARLINK-5315,PAYLOAD,2024-01-20 11:58:19,14.98328766,0.0002816,70.0007,169.2099,267.0818,93.0019,6.3988e-05,6.71e-06,0.0,0 STARLINK-5315,1 55309U 23010AS  24020.49883376  .00000671  00000-0  63988-4 0  9996,2 55309  70.0007 169.2099 0002816 267.0818  93.0019 14.98328766 56730,6950.197,96.107,574.019,570.105,0.0
55309.0,STARLINK-5315,PAYLOAD,2024-01-20 15:10:35,14.98328363,0.0002828,70.0006,168.8734,266.5147,93.5688,5.5666e-05,5.71e-06,0.0,0 STARLINK-5315,1 55309U 23010AS  24020.63235429  .00000571  00000-0  55666-4 0  9995,2 55309  70.0006 168.8734 0002828 266.5147  93.5688 14.98328363 57070,6950.198,96.107,574.028,570.097,0.0
55309.0,STARLINK-5315,PAYLOAD,2024-01-20 19:58:59,14.98331012,0.0002797,70.0007,168.3688,265.3246,94.7594,8.0726e-05,8.7e-06,0.0,0 STARLINK-5315,1 55309U 23010AS  24020.83263181  .00000870  00000-0  80726-4 0  9990,2 55309  70.0007 168.3688 0002797 265.3246  94.7594 14.98331012 57104,6950.19,96.107,573.999,570.111,0.0
55309.0,STARLINK-5315,PAYLOAD,2024-01-21 12:00:19,14.98334372,0.0002731,70.001,166.686,262.6964,97.3885,4.711e-05,4.69e-06,0.0,0 STARLINK-5315,1 55309U 23010AS  24021.50022906  .00000469  00000-0  47110-4 0  9997,2 55309  70.0010 166.6860 0002731 262.6964  97.3885 14.98334372 56884,6950.179,96.107,573.942,570.146,0.0
55309.0,STARLINK-5315,PAYLOAD,2024-01-21 20:00:59,14.98336078,0.0002739,70.0008,165.843,267.0957,92.9888,5.0996e-05,5.16e-06,0.0,0 STARLINK-5315,1 55309U 23010AS  24021.83402688  .00000516  00000-0  50996-4 0  9991,2 55309  70.0008 165.8430 0002739 267.0957  92.9888 14.98336078 57255,6950.174,96.107,573.943,570.135,0.0
55309.0,STARLINK-5315,PAYLOAD,2024-01-22 12:02:22,14.98315896,0.0002699,70.0006,164.1603,265.6479,94.4372,-0.00017543,-2.185e-05,0.0,0 STARLINK-5315,1 55309U 23010AS  24022.50164859 -.00002185  00000-0 -17543-3 0  9997,2 55309  70.0006 164.1603 0002699 265.6479  94.4372 14.98315896 57031,6950.237,96.108,573.977,570.226,0.0
55309.0,STARLINK-5315,PAYLOAD,2024-01-22 18:26:54,14.98317951,0.0002652,70.0009,163.488,257.9637,102.1225,-0.00014377,-1.807e-05,0.0,0 STARLINK-5315,1 55309U 23010AS  24022.76868802 -.00001807  00000-0 -14377-3 0  9996,2 55309  70.0009 163.4880 0002652 257.9637 102.1225 14.98317951 57399,6950.23,96.108,573.938,570.252,0.0
55309.0,STARLINK-5315,PAYLOAD,2024-01-23 12:04:21,14.98339309,0.0003456,69.9995,161.6341,280.3117,79.7652,2.0836e-05,1.56e-06,0.0,0 STARLINK-5315,1 55309U 23010AS  24023.50302845  .00000156  00000-0  20836-4 0  9991,2 55309  69.9995 161.6341 0003456 280.3117  79.7652 14.98339309 57189,6950.164,96.106,574.431,569.627,0.0
55309.0,STARLINK-5315,PAYLOAD,2024-01-23 16:52:45,14.98345372,0.0003129,70.0003,161.13,282.7733,77.3077,0.00012789,1.434e-05,0.0,0 STARLINK-5315,1 55309U 23010AS  24023.70330170  .00001434  00000-0  12789-3 0  9992,2 55309  70.0003 161.1300 0003129 282.7733  77.3077 14.98345372 57215,6950.145,96.106,574.185,569.836,0.0
55309.0,STARLINK-5315,PAYLOAD,2024-01-23 18:28:52,14.98350517,0.000313,69.9999,160.9622,272.2889,87.7912,0.00014989,1.697e-05,0.0,0 STARLINK-5315,1 55309U 23010AS  24023.77005597  .00001697  00000-0  14989-3 0  9996,2 55309  69.9999 160.9622 0003130 272.2889  87.7912 14.98350517 57544,6950.129,96.106,574.17,569.819,0.0
55309.0,STARLINK-5315,PAYLOAD,2024-01-24 12:06:23,14.98322002,0.0002535,70.0034,159.1168,222.9802,137.116,0.00016127,1.831e-05,0.0,0 STARLINK-5315,1 55309U 23010AS  24024.50443319  .00001831  00000-0  16127-3 0  9992,2 55309  70.0034 159.1168 0002535 222.9802 137.1160 14.98322002 57337,6950.218,96.108,573.845,570.321,0.0
55309.0,STARLINK-5315,PAYLOAD,2024-01-24 13:42:31,14.98322226,0.0002779,70.0033,158.9484,212.8996,147.199,0.00014048,1.583e-05,0.0,0 STARLINK-5315,1 55309U 23010AS  24024.57119338  .00001583  00000-0  14048-3 0  9994,2 55309  70.0033 158.9484 0002779 212.8996 147.1990 14.98322226 57662,6950.217,96.107,574.013,570.15,0.0
55309.0,STARLINK-5315,PAYLOAD,2024-01-24 18:30:56,14.98315229,0.0002285,70.0026,158.4414,241.3699,118.7231,6.0198e-05,6.25e-06,0.0,0 STARLINK-5315,1 55309U 23010AS  24024.77148190  .00000625  00000-0  60198-4 0  9998,2 55309  70.0026 158.4414 0002285 241.3699 118.7231 14.98315229 57376,6950.239,96.108,573.692,570.515,0.0
55309.0,STARLINK-5315,PAYLOAD,2024-01-25 12:08:24,14.98336484,0.000251,70.0017,156.5891,256.7417,103.3462,-0.00015559,-1.949e-05,0.0,0 STARLINK-5315,1 55309U 23010AS  24025.50583358 -.00001949  00000-0 -15559-3 0  9991,2 55309  70.0017 156.5891 0002510 256.7417 103.3462 14.98336484 57487,6950.173,96.107,573.782,570.293,0.0
55309.0,STARLINK-5315,PAYLOAD,2024-01-25 13:44:32,14.98338032,0.0002823,70.0011,156.4202,262.6661,97.4178,-0.00020008,-2.48e-05,0.0,0 STARLINK-5315,1 55309U 23010AS  24025.57259381 -.00002480  00000-0 -20008-3 0  9990,2 55309  70.0011 156.4202 0002823 262.6661  97.4178 14.98338032 57815,6950.168,96.106,573.995,570.071,0.0
55309.0,STARLINK-5315,PAYLOAD,2024-01-25 18:32:57,14.98316836,0.0002739,70.0014,155.9145,284.4984,75.5871,-0.00035229,-4.292e-05,0.0,0 STARLINK-5315,1 55309U 23010AS  24025.77289333 -.00004292  00000-0 -35229-3 0  9996,2 55309  70.0014 155.9145 0002739 284.4984  75.5871 14.98316836 57527,6950.234,96.108,574.002,570.195,0.0
55309.0,STARLINK-5315,PAYLOAD,2024-01-26 12:10:26,14.98319736,0.0003295,70.0001,154.0605,278.3637,81.7149,-6.4566e-05,-8.63e-06,0.0,0 STARLINK-5315,1 55309U 23010AS  24026.50724802 -.00000863  00000-0 -64566-4 0  9990,2 55309  70.0001 154.0605 0003295 278.3637  81.7149 14.98319736 57630,6950.225,96.108,574.38,569.8,0.0
55309.0,STARLINK-5315,PAYLOAD,2024-01-26 13:46:34,14.98314974,0.0003123,70.0,153.8902,279.6404,80.4402,-8.3949e-06,-1.93e-06,0.0,0 STARLINK-5315,1 55309U 23010AS  24026.57401001 -.00000193  00000-0 -83949-5 0  9993,2 55309  70.0000 153.8902 0003123 279.6404  80.4402 14.98314974 57965,6950.239,96.108,574.275,569.934,0.0
55309.0,STARLINK-5315,PAYLOAD,2024-01-26 18:34:58,14.98324699,0.0002939,70.0004,153.3881,270.9664,89.1158,3.0422e-05,2.7e-06,0.0,0 STARLINK-5315,1 55309U 23010AS  24026.77428375  .00000270  00000-0  30422-4 0  9999,2 55309  70.0004 153.3881 0002939 270.9664  89.1158 14.98324699 57673,6950.209,96.107,574.117,570.032,0.0
55309.0,STARLINK-5315,PAYLOAD,2024-01-27 12:12:25,14.98337308,0.0003334,69.9999,151.5366,275.539,84.5389,0.00013711,1.544e-05,0.0,0 STARLINK-5315,1 55309U 23010AS  24027.50863214  .00001544  00000-0  13711-3 0  9992,2 55309  69.9999 151.5366 0003334 275.5390  84.5389 14.98337308 57786,6950.17,96.107,574.352,569.718,0.0
55309.0,STARLINK-5315,PAYLOAD,2024-01-27 13:48:33,14.98341678,0.000305,69.9999,151.3683,275.2096,84.8714,8.2548e-05,8.92e-06,0.0,0 STARLINK-5315,1 55309U 23010AS  24027.57539096  .00000892  00000-0  82548-4 0  9997,2 55309  69.9999 151.3683 0003050 275.2096  84.8714 14.98341678 58119,6950.157,96.106,574.142,569.902,0.0
55309.0,STARLINK-5315,PAYLOAD,2024-01-27 18:36:57,14.98344795,0.0003146,70.0001,150.8633,274.6824,85.3975,0.00023798,2.749e-05,0.0,0 STARLINK-5315,1 55309U 23010AS  24027.77566305  .00002749  00000-0  23798-3 0  9996,2 55309  70.0001 150.8633 0003146 274.6824  85.3975 14.98344795 57828,6950.147,96.106,574.199,569.826,0.0
55309.0,STARLINK-5315,PAYLOAD,2024-01-28 12:14:26,14.98332076,0.0002407,70.002,149.0139,246.9884,113.1021,0.00010145,1.118e-05,0.0,0 STARLINK-5315,1 55309U 23010AS  24028.51003305  .00001118  00000-0  10145-3 0  9996,2 55309  70.0020 149.0139 0002407 246.9884 113.1021 14.98332076 57930,6950.186,96.107,573.724,570.379,0.0
